{
  "type": "FeatureCollection",
  "features": [
    {
      "type": "Feature",
      "properties": {
        "norad_id": 30709,
        "name": "FENGYUN 1C DEB",
        "group": "fengyun-1c-debris",
        "lat": -70.65527023867553,
        "lon": 125.48566904886574,
        "alt_km": 781.9694922683502,
        "timestamp": "2025-12-20T14:38:02.248051+00:00",
        "meta_object_name": "FENGYUN 1C DEB",
        "meta_object_id": "1999-025ART",
        "meta_epoch": "2025-12-18T14:00:31.029408",
        "meta_mean_motion": 14.17535884,
        "meta_eccentricity": 0.00820061,
        "meta_inclination": 99.1439,
        "meta_ra_of_asc_node": 330.7095,
        "meta_arg_of_pericenter": 253.5213,
        "meta_mean_anomaly": 105.6937,
        "meta_ephemeris_type": 0,
        "meta_classification_type": "U",
        "meta_norad_cat_id": 30709,
        "meta_element_set_no": 999,
        "meta_rev_at_epoch": 96079,
        "meta_bstar": 0.0019274386,
        "meta_mean_motion_dot": 3.998e-05,
        "meta_mean_motion_ddot": 0,
        "tle_line1": "1 30709U 99025ART 25352.58369247  .00003998  00000+0  19274-2 0  9998",
        "tle_line2": "2 30709  99.1439 330.7095 0082006 253.5213 105.6937 14.17535884960798"
      },
      "geometry": {
        "type": "Point",
        "coordinates": [
          125.48566904886574,
          -70.65527023867553
        ]
      }
    },
    {
      "type": "Feature",
      "properties": {
        "norad_id": 30710,
        "name": "FENGYUN 1C DEB",
        "group": "fengyun-1c-debris",
        "lat": -11.747587134815,
        "lon": 64.07431369277634,
        "alt_km": 1015.0497944772087,
        "timestamp": "2025-12-20T14:38:02.248061+00:00",
        "meta_object_name": "FENGYUN 1C DEB",
        "meta_object_id": "1999-025ARU",
        "meta_epoch": "2025-12-19T11:02:00.151872",
        "meta_mean_motion": 13.94198535,
        "meta_eccentricity": 0.0224534,
        "meta_inclination": 102.7471,
        "meta_ra_of_asc_node": 245.1907,
        "meta_arg_of_pericenter": 67.296,
        "meta_mean_anomaly": 113.1689,
        "meta_ephemeris_type": 0,
        "meta_classification_type": "U",
        "meta_norad_cat_id": 30710,
        "meta_element_set_no": 999,
        "meta_rev_at_epoch": 94882,
        "meta_bstar": 0.0021978,
        "meta_mean_motion_dot": 3.525e-05,
        "meta_mean_motion_ddot": 0,
        "tle_line1": "1 30710U 99025ARU 25353.45972398  .00003525  00000+0  21978-2 0  9994",
        "tle_line2": "2 30710 102.7471 245.1907 0224534  67.2960 113.1689 13.94198535948821"
      },
      "geometry": {
        "type": "Point",
        "coordinates": [
          64.07431369277634,
          -11.747587134815
        ]
      }
    },
    {
      "type": "Feature",
      "properties": {
        "norad_id": 30714,
        "name": "FENGYUN 1C DEB",
        "group": "fengyun-1c-debris",
        "lat": 69.13710799128745,
        "lon": 18.82114931761255,
        "alt_km": 923.4899107647007,
        "timestamp": "2025-12-20T14:38:02.248071+00:00",
        "meta_object_name": "FENGYUN 1C DEB",
        "meta_object_id": "1999-025ARY",
        "meta_epoch": "2025-12-20T02:34:36.602976",
        "meta_mean_motion": 14.03300947,
        "meta_eccentricity": 0.00667778,
        "meta_inclination": 98.8356,
        "meta_ra_of_asc_node": 42.4199,
        "meta_arg_of_pericenter": 261.7252,
        "meta_mean_anomaly": 152.6483,
        "meta_ephemeris_type": 0,
        "meta_classification_type": "U",
        "meta_norad_cat_id": 30714,
        "meta_element_set_no": 999,
        "meta_rev_at_epoch": 96096,
        "meta_bstar": 0.00028557696,
        "meta_mean_motion_dot": 4.11e-06,
        "meta_mean_motion_ddot": 0,
        "tle_line1": "1 30714U 99025ARY 25354.10736809  .00000411  00000+0  28558-3 0  9999",
        "tle_line2": "2 30714  98.8356  42.4199 0066777 261.7252 152.6483 14.03300947960963"
      },
      "geometry": {
        "type": "Point",
        "coordinates": [
          18.82114931761255,
          69.13710799128745
        ]
      }
    },
    {
      "type": "Feature",
      "properties": {
        "norad_id": 30715,
        "name": "FENGYUN 1C DEB",
        "group": "fengyun-1c-debris",
        "lat": -75.44089522912284,
        "lon": -153.67282063206036,
        "alt_km": 868.5600263997876,
        "timestamp": "2025-12-20T14:38:02.248081+00:00",
        "meta_object_name": "FENGYUN 1C DEB",
        "meta_object_id": "1999-025ARZ",
        "meta_epoch": "2025-12-20T03:14:13.276032",
        "meta_mean_motion": 14.14741752,
        "meta_eccentricity": 0.00676489,
        "meta_inclination": 98.9765,
        "meta_ra_of_asc_node": 63.338,
        "meta_arg_of_pericenter": 147.7265,
        "meta_mean_anomaly": 212.8074,
        "meta_ephemeris_type": 0,
        "meta_classification_type": "U",
        "meta_norad_cat_id": 30715,
        "meta_element_set_no": 999,
        "meta_rev_at_epoch": 96286,
        "meta_bstar": 0.0013476894,
        "meta_mean_motion_dot": 2.61e-05,
        "meta_mean_motion_ddot": 0,
        "tle_line1": "1 30715U 99025ARZ 25354.13487588  .00002610  00000+0  13477-2 0  9996",
        "tle_line2": "2 30715  98.9765  63.3380 0067648 147.7265 212.8074 14.14741752962869"
      },
      "geometry": {
        "type": "Point",
        "coordinates": [
          -153.67282063206036,
          -75.44089522912284
        ]
      }
    },
    {
      "type": "Feature",
      "properties": {
        "norad_id": 30716,
        "name": "FENGYUN 1C DEB",
        "group": "fengyun-1c-debris",
        "lat": 71.4694450903098,
        "lon": 26.259067392416554,
        "alt_km": 613.7564859793001,
        "timestamp": "2025-12-20T14:38:02.248091+00:00",
        "meta_object_name": "FENGYUN 1C DEB",
        "meta_object_id": "1999-025ASA",
        "meta_epoch": "2025-12-20T00:13:48.544896",
        "meta_mean_motion": 14.79729125,
        "meta_eccentricity": 0.0020564,
        "meta_inclination": 98.8714,
        "meta_ra_of_asc_node": 177.8236,
        "meta_arg_of_pericenter": 59.0023,
        "meta_mean_anomaly": 91.9335,
        "meta_ephemeris_type": 0,
        "meta_classification_type": "U",
        "meta_norad_cat_id": 30716,
        "meta_element_set_no": 999,
        "meta_rev_at_epoch": 97931,
        "meta_bstar": 0.0021887264,
        "meta_mean_motion_dot": 0.00016483,
        "meta_mean_motion_ddot": 0,
        "tle_line1": "1 30716U 99025ASA 25354.00958964  .00016483  00000+0  21887-2 0  9991",
        "tle_line2": "2 30716  98.8714 177.8236 0020564  59.0023  91.9335 14.79729125979312"
      },
      "geometry": {
        "type": "Point",
        "coordinates": [
          26.259067392416554,
          71.4694450903098
        ]
      }
    },
    {
      "type": "Feature",
      "properties": {
        "norad_id": 30717,
        "name": "FENGYUN 1C DEB",
        "group": "fengyun-1c-debris",
        "lat": 71.66321154070707,
        "lon": 36.89266917811432,
        "alt_km": 849.5036828893008,
        "timestamp": "2025-12-20T14:38:02.248101+00:00",
        "meta_object_name": "FENGYUN 1C DEB",
        "meta_object_id": "1999-025ASB",
        "meta_epoch": "2025-12-20T04:08:29.956416",
        "meta_mean_motion": 14.2058063,
        "meta_eccentricity": 0.0048592,
        "meta_inclination": 99.0169,
        "meta_ra_of_asc_node": 65.0735,
        "meta_arg_of_pericenter": 236.2066,
        "meta_mean_anomaly": 123.4477,
        "meta_ephemeris_type": 0,
        "meta_classification_type": "U",
        "meta_norad_cat_id": 30717,
        "meta_element_set_no": 999,
        "meta_rev_at_epoch": 96642,
        "meta_bstar": 0.00095022192,
        "meta_mean_motion_dot": 2.022e-05,
        "meta_mean_motion_ddot": 0,
        "tle_line1": "1 30717U 99025ASB 25354.17256894  .00002022  00000+0  95022-3 0  9990",
        "tle_line2": "2 30717  99.0169  65.0735 0048592 236.2066 123.4477 14.20580630966427"
      },
      "geometry": {
        "type": "Point",
        "coordinates": [
          36.89266917811432,
          71.66321154070707
        ]
      }
    },
    {
      "type": "Feature",
      "properties": {
        "norad_id": 30718,
        "name": "FENGYUN 1C DEB",
        "group": "fengyun-1c-debris",
        "lat": -70.70826384482756,
        "lon": -131.45978612295556,
        "alt_km": 837.2196104587638,
        "timestamp": "2025-12-20T14:38:02.248111+00:00",
        "meta_object_name": "FENGYUN 1C DEB",
        "meta_object_id": "1999-025ASC",
        "meta_epoch": "2025-12-19T22:16:58.029024",
        "meta_mean_motion": 14.24397126,
        "meta_eccentricity": 0.0057272,
        "meta_inclination": 98.8907,
        "meta_ra_of_asc_node": 74.4142,
        "meta_arg_of_pericenter": 136.254,
        "meta_mean_anomaly": 224.3197,
        "meta_ephemeris_type": 0,
        "meta_classification_type": "U",
        "meta_norad_cat_id": 30718,
        "meta_element_set_no": 999,
        "meta_rev_at_epoch": 96876,
        "meta_bstar": 0.0010463,
        "meta_mean_motion_dot": 2.417e-05,
        "meta_mean_motion_ddot": 0,
        "tle_line1": "1 30718U 99025ASC 25353.92844941  .00002417  00000+0  10463-2 0  9992",
        "tle_line2": "2 30718  98.8907  74.4142 0057272 136.2540 224.3197 14.24397126968761"
      },
      "geometry": {
        "type": "Point",
        "coordinates": [
          -131.45978612295556,
          -70.70826384482756
        ]
      }
    }
  ]
}